FLOCK 4G-25             
1 62646U 25009AP  26068.74572546  .00010373  00000+0  38902-3 0  9990
2 62646  97.4049 151.4141 0000828 316.3151  43.8023 15.27424196 63734
STARLINK-33644          
1 63414U 25065R   26068.81683483  .00021640  00000+0  79326-3 0  9991
2 63414  43.0030 106.8035 0002477 265.9603  94.0966 15.27593119 52851
